[{"OBJECT_NAME":"STARLINK-5441","OBJECT_ID":"2022-175AF","EPOCH":"2026-03-09T23:00:52.193952","MEAN_MOTION":15.08825404,"ECCENTRICITY":0.00010426,"INCLINATION":53.2176,"RA_OF_ASC_NODE":42.6299,"ARG_OF_PERICENTER":92.6743,"MEAN_ANOMALY":267.4369,"EPHEMERIS_TYPE":0,"CLASSIFICATION_TYPE":"U","NORAD_CAT_ID":54787,"ELEMENT_SET_NO":999,"REV_AT_EPOCH":17996,"BSTAR":-4.6085012e-5,"MEAN_MOTION_DOT":-1.021e-5,"MEAN_MOTION_DDOT":0},{"OBJECT_NAME":"POSAT-2","OBJECT_ID":"2025-009DR","EPOCH":"2026-03-09T23:15:20.314368","MEAN_MOTION":15.10404492,"ECCENTRICITY":0.00077103,"INCLINATION":97.4906,"RA_OF_ASC_NODE":146.0095,"ARG_OF_PERICENTER":126.4226,"MEAN_ANOMALY":233.7715,"EPHEMERIS_TYPE":0,"CLASSIFICATION_TYPE":"U","NORAD_CAT_ID":63488,"ELEMENT_SET_NO":999,"REV_AT_EPOCH":5165,"BSTAR":0.0010942248,"MEAN_MOTION_DOT":0.00017957,"MEAN_MOTION_DDOT":0}]
